[{"OBJECT_NAME":"STARLINK-32958","OBJECT_ID":"2025-075R","EPOCH":"2025-11-07T20:23:05.420256","MEAN_MOTION":15.27581355,"ECCENTRICITY":0.0003561,"INCLINATION":43.0034,"RA_OF_ASC_NODE":238.7157,"ARG_OF_PERICENTER":298.9847,"MEAN_ANOMALY":61.0647,"EPHEMERIS_TYPE":0,"CLASSIFICATION_TYPE":"U","NORAD_CAT_ID":63563,"ELEMENT_SET_NO":999,"REV_AT_EPOCH":3329,"BSTAR":0.001472,"MEAN_MOTION_DOT":0.00040472,"MEAN_MOTION_DDOT":0},{"OBJECT_NAME":"STARLINK-32928","OBJECT_ID":"2025-075S","EPOCH":"2025-11-07T19:59:02.293152","MEAN_MOTION":15.27575974,"ECCENTRICITY":0.0004136,"INCLINATION":43.0043,"RA_OF_ASC_NODE":238.5858,"ARG_OF_PERICENTER":296.9808,"MEAN_ANOMALY":63.0621,"EPHEMERIS_TYPE":0,"CLASSIFICATION_TYPE":"U","NORAD_CAT_ID":63564,"ELEMENT_SET_NO":999,"REV_AT_EPOCH":3330,"BSTAR":0.0015265,"MEAN_MOTION_DOT":0.00041986,"MEAN_MOTION_DDOT":0},{"OBJECT_NAME":"STARLINK-32687","OBJECT_ID":"2025-075T","EPOCH":"2025-11-07T12:45:15.033600","MEAN_MOTION":15.27567052,"ECCENTRICITY":0.0001676,"INCLINATION":43.0043,"RA_OF_ASC_NODE":240.6037,"ARG_OF_PERICENTER":275.346,"MEAN_ANOMALY":84.7201,"EPHEMERIS_TYPE":0,"CLASSIFICATION_TYPE":"U","NORAD_CAT_ID":63565,"ELEMENT_SET_NO":999,"REV_AT_EPOCH":3325,"BSTAR":0.0022201,"MEAN_MOTION_DOT":0.00061314,"MEAN_MOTION_DDOT":0},{"OBJECT_NAME":"STARLINK-32950","OBJECT_ID":"2025-075U","EPOCH":"2025-11-06T20:19:13.812096","MEAN_MOTION":15.27594183,"ECCENTRICITY":9.136e-5,"INCLINATION":43.0006,"RA_OF_ASC_NODE":244.0201,"ARG_OF_PERICENTER":276.4654,"MEAN_ANOMALY":83.6093,"EPHEMERIS_TYPE":0,"CLASSIFICATION_TYPE":"U","NORAD_CAT_ID":63566,"ELEMENT_SET_NO":999,"REV_AT_EPOCH":3314,"BSTAR":0.00041702536,"MEAN_MOTION_DOT":0.00011236,"MEAN_MOTION_DDOT":0},{"OBJECT_NAME":"STARLINK-32954","OBJECT_ID":"2025-075V","EPOCH":"2025-11-06T20:37:44.851296","MEAN_MOTION":15.27578899,"ECCENTRICITY":0.0001597,"INCLINATION":43.0022,"RA_OF_ASC_NODE":244.1538,"ARG_OF_PERICENTER":242.0524,"MEAN_ANOMALY":118.0166,"EPHEMERIS_TYPE":0,"CLASSIFICATION_TYPE":"U","NORAD_CAT_ID":63567,"ELEMENT_SET_NO":999,"REV_AT_EPOCH":3314,"BSTAR":0.0010077,"MEAN_MOTION_DOT":0.00027571,"MEAN_MOTION_DDOT":0},{"OBJECT_NAME":"STARLINK-32940","OBJECT_ID":"2025-075W","EPOCH":"2025-11-07T18:43:22.290240","MEAN_MOTION":15.27533588,"ECCENTRICITY":0.0001712,"INCLINATION":43.0058,"RA_OF_ASC_NODE":239.0266,"ARG_OF_PERICENTER":264.9188,"MEAN_ANOMALY":95.1468,"EPHEMERIS_TYPE":0,"CLASSIFICATION_TYPE":"U","NORAD_CAT_ID":63568,"ELEMENT_SET_NO":999,"REV_AT_EPOCH":3328,"BSTAR":0.0014329,"MEAN_MOTION_DOT":0.00039322,"MEAN_MOTION_DDOT":0},{"OBJECT_NAME":"STARLINK-32959","OBJECT_ID":"2025-076A","EPOCH":"2025-11-07T16:02:17.888640","MEAN_MOTION":15.27649797,"ECCENTRICITY":0.00031,"INCLINATION":43.0029,"RA_OF_ASC_NODE":294.7861,"ARG_OF_PERICENTER":278.2661,"MEAN_ANOMALY":81.7839,"EPHEMERIS_TYPE":0,"CLASSIFICATION_TYPE":"U","NORAD_CAT_ID":63569,"ELEMENT_SET_NO":999,"REV_AT_EPOCH":3312,"BSTAR":0.0012626,"MEAN_MOTION_DOT":0.00034724,"MEAN_MOTION_DDOT":0},{"OBJECT_NAME":"STARLINK-32956","OBJECT_ID":"2025-076B","EPOCH":"2025-11-07T16:13:10.706304","MEAN_MOTION":15.27653824,"ECCENTRICITY":0.0004147,"INCLINATION":43.0062,"RA_OF_ASC_NODE":293.9791,"ARG_OF_PERICENTER":264.4077,"MEAN_ANOMALY":95.6301,"EPHEMERIS_TYPE":0,"CLASSIFICATION_TYPE":"U","NORAD_CAT_ID":63570,"ELEMENT_SET_NO":999,"REV_AT_EPOCH":3312,"BSTAR":0.0012798,"MEAN_MOTION_DOT":0.00035208,"MEAN_MOTION_DDOT":0},{"OBJECT_NAME":"STARLINK-33722","OBJECT_ID":"2025-076C","EPOCH":"2025-11-06T23:18:30.739968","MEAN_MOTION":15.2759872,"ECCENTRICITY":9.646e-5,"INCLINATION":43.0013,"RA_OF_ASC_NODE":294.6265,"ARG_OF_PERICENTER":268.153,"MEAN_ANOMALY":91.9211,"EPHEMERIS_TYPE":0,"CLASSIFICATION_TYPE":"U","NORAD_CAT_ID":63571,"ELEMENT_SET_NO":999,"REV_AT_EPOCH":3305,"BSTAR":0.00094673496,"MEAN_MOTION_DOT":0.00025896,"MEAN_MOTION_DDOT":0},{"OBJECT_NAME":"STARLINK-33739","OBJECT_ID":"2025-076D","EPOCH":"2025-11-07T15:50:02.089824","MEAN_MOTION":15.27596259,"ECCENTRICITY":6.33e-5,"INCLINATION":43.0018,"RA_OF_ASC_NODE":291.1932,"ARG_OF_PERICENTER":260.2459,"MEAN_ANOMALY":99.8321,"EPHEMERIS_TYPE":0,"CLASSIFICATION_TYPE":"U","NORAD_CAT_ID":63572,"ELEMENT_SET_NO":999,"REV_AT_EPOCH":3316,"BSTAR":0.00048774,"MEAN_MOTION_DOT":0.0001319,"MEAN_MOTION_DDOT":0},{"OBJECT_NAME":"STARLINK-33683","OBJECT_ID":"2025-076E","EPOCH":"2025-11-07T15:48:13.792608","MEAN_MOTION":15.27577402,"ECCENTRICITY":7.82e-5,"INCLINATION":43.0044,"RA_OF_ASC_NODE":291.1816,"ARG_OF_PERICENTER":283.3381,"MEAN_ANOMALY":76.7384,"EPHEMERIS_TYPE":0,"CLASSIFICATION_TYPE":"U","NORAD_CAT_ID":63573,"ELEMENT_SET_NO":999,"REV_AT_EPOCH":3316,"BSTAR":0.0016297,"MEAN_MOTION_DOT":0.00044851,"MEAN_MOTION_DDOT":0},{"OBJECT_NAME":"STARLINK-33732","OBJECT_ID":"2025-076G","EPOCH":"2025-11-07T20:12:09.321120","MEAN_MOTION":15.27617656,"ECCENTRICITY":9.47e-5,"INCLINATION":43.0009,"RA_OF_ASC_NODE":289.976,"ARG_OF_PERICENTER":287.1567,"MEAN_ANOMALY":72.9181,"EPHEMERIS_TYPE":0,"CLASSIFICATION_TYPE":"U","NORAD_CAT_ID":63575,"ELEMENT_SET_NO":999,"REV_AT_EPOCH":3319,"BSTAR":0.0019293,"MEAN_MOTION_DOT":0.00053273,"MEAN_MOTION_DDOT":0},{"OBJECT_NAME":"STARLINK-33800","OBJECT_ID":"2025-076H","EPOCH":"2025-11-07T16:00:01.998720","MEAN_MOTION":15.27582519,"ECCENTRICITY":0.0001574,"INCLINATION":43.0034,"RA_OF_ASC_NODE":290.6293,"ARG_OF_PERICENTER":261.8537,"MEAN_ANOMALY":355.746,"EPHEMERIS_TYPE":0,"CLASSIFICATION_TYPE":"U","NORAD_CAT_ID":63576,"ELEMENT_SET_NO":999,"REV_AT_EPOCH":572,"BSTAR":-0.00038644,"MEAN_MOTION_DOT":-0.00010882,"MEAN_MOTION_DDOT":0},{"OBJECT_NAME":"STARLINK-33632","OBJECT_ID":"2025-076J","EPOCH":"2025-11-07T00:02:56.801184","MEAN_MOTION":15.2757717,"ECCENTRICITY":8.951e-5,"INCLINATION":43.002,"RA_OF_ASC_NODE":294.8518,"ARG_OF_PERICENTER":236.5977,"MEAN_ANOMALY":123.4789,"EPHEMERIS_TYPE":0,"CLASSIFICATION_TYPE":"U","NORAD_CAT_ID":63577,"ELEMENT_SET_NO":999,"REV_AT_EPOCH":3306,"BSTAR":0.00086058484,"MEAN_MOTION_DOT":0.00023493,"MEAN_MOTION_DDOT":0},{"OBJECT_NAME":"STARLINK-33719","OBJECT_ID":"2025-076K","EPOCH":"2025-11-06T06:08:20.944608","MEAN_MOTION":15.27620068,"ECCENTRICITY":6.2e-5,"INCLINATION":43.0004,"RA_OF_ASC_NODE":298.7165,"ARG_OF_PERICENTER":253.8974,"MEAN_ANOMALY":106.181,"EPHEMERIS_TYPE":0,"CLASSIFICATION_TYPE":"U","NORAD_CAT_ID":63578,"ELEMENT_SET_NO":999,"REV_AT_EPOCH":3295,"BSTAR":0.0012775,"MEAN_MOTION_DOT":0.00035101,"MEAN_MOTION_DDOT":0},{"OBJECT_NAME":"STARLINK-33755","OBJECT_ID":"2025-076L","EPOCH":"2025-11-07T19:49:55.591968","MEAN_MOTION":15.27591779,"ECCENTRICITY":0.0001382,"INCLINATION":43.0014,"RA_OF_ASC_NODE":289.7778,"ARG_OF_PERICENTER":283.1292,"MEAN_ANOMALY":76.9406,"EPHEMERIS_TYPE":0,"CLASSIFICATION_TYPE":"U","NORAD_CAT_ID":63579,"ELEMENT_SET_NO":999,"REV_AT_EPOCH":3319,"BSTAR":0.0009253,"MEAN_MOTION_DOT":0.00025297,"MEAN_MOTION_DDOT":0},{"OBJECT_NAME":"STARLINK-33752","OBJECT_ID":"2025-076M","EPOCH":"2025-11-07T15:25:58.717344","MEAN_MOTION":15.27605919,"ECCENTRICITY":0.000101,"INCLINATION":43.0031,"RA_OF_ASC_NODE":291.063,"ARG_OF_PERICENTER":265.2132,"MEAN_ANOMALY":94.8604,"EPHEMERIS_TYPE":0,"CLASSIFICATION_TYPE":"U","NORAD_CAT_ID":63580,"ELEMENT_SET_NO":999,"REV_AT_EPOCH":3316,"BSTAR":0.0012256,"MEAN_MOTION_DOT":0.00033645,"MEAN_MOTION_DDOT":0},{"OBJECT_NAME":"STARLINK-33714","OBJECT_ID":"2025-076N","EPOCH":"2025-11-06T23:12:57.464064","MEAN_MOTION":15.27617042,"ECCENTRICITY":0.00011966,"INCLINATION":42.9991,"RA_OF_ASC_NODE":294.5911,"ARG_OF_PERICENTER":267.1737,"MEAN_ANOMALY":92.8978,"EPHEMERIS_TYPE":0,"CLASSIFICATION_TYPE":"U","NORAD_CAT_ID":63581,"ELEMENT_SET_NO":999,"REV_AT_EPOCH":3306,"BSTAR":0.0016110808,"MEAN_MOTION_DOT":0.00044389,"MEAN_MOTION_DDOT":0},{"OBJECT_NAME":"STARLINK-33814","OBJECT_ID":"2025-076P","EPOCH":"2025-11-06T23:03:42.279264","MEAN_MOTION":15.27601855,"ECCENTRICITY":0.00016372,"INCLINATION":43.0029,"RA_OF_ASC_NODE":294.5372,"ARG_OF_PERICENTER":256.0708,"MEAN_ANOMALY":103.9962,"EPHEMERIS_TYPE":0,"CLASSIFICATION_TYPE":"U","NORAD_CAT_ID":63582,"ELEMENT_SET_NO":999,"REV_AT_EPOCH":3306,"BSTAR":0.0010711108,"MEAN_MOTION_DOT":0.0002935,"MEAN_MOTION_DDOT":0},{"OBJECT_NAME":"STARLINK-33817","OBJECT_ID":"2025-076Q","EPOCH":"2025-11-07T16:10:10.327296","MEAN_MOTION":15.27650884,"ECCENTRICITY":0.0001049,"INCLINATION":43.0026,"RA_OF_ASC_NODE":290.4315,"ARG_OF_PERICENTER":264.8311,"MEAN_ANOMALY":95.2421,"EPHEMERIS_TYPE":0,"CLASSIFICATION_TYPE":"U","NORAD_CAT_ID":63583,"ELEMENT_SET_NO":999,"REV_AT_EPOCH":3316,"BSTAR":0.0013081,"MEAN_MOTION_DOT":0.00035988,"MEAN_MOTION_DDOT":0},{"OBJECT_NAME":"STARLINK-33820","OBJECT_ID":"2025-076R","EPOCH":"2025-11-07T00:17:30.729408","MEAN_MOTION":15.27638159,"ECCENTRICITY":0.00030377,"INCLINATION":43.0062,"RA_OF_ASC_NODE":294.064,"ARG_OF_PERICENTER":292.7363,"MEAN_ANOMALY":67.3167,"EPHEMERIS_TYPE":0,"CLASSIFICATION_TYPE":"U","NORAD_CAT_ID":63584,"ELEMENT_SET_NO":999,"REV_AT_EPOCH":3307,"BSTAR":0.0014830976,"MEAN_MOTION_DOT":0.00040851,"MEAN_MOTION_DDOT":0},{"OBJECT_NAME":"STARLINK-33813","OBJECT_ID":"2025-076S","EPOCH":"2025-11-07T16:00:54.936864","MEAN_MOTION":15.27608306,"ECCENTRICITY":0.0002297,"INCLINATION":43.0053,"RA_OF_ASC_NODE":290.3846,"ARG_OF_PERICENTER":271.9031,"MEAN_ANOMALY":88.1558,"EPHEMERIS_TYPE":0,"CLASSIFICATION_TYPE":"U","NORAD_CAT_ID":63585,"ELEMENT_SET_NO":999,"REV_AT_EPOCH":3317,"BSTAR":0.0012298,"MEAN_MOTION_DOT":0.00033763,"MEAN_MOTION_DDOT":0},{"OBJECT_NAME":"STARLINK-33834","OBJECT_ID":"2025-076T","EPOCH":"2025-11-07T15:16:44.215968","MEAN_MOTION":15.27603401,"ECCENTRICITY":7.39e-5,"INCLINATION":43.0003,"RA_OF_ASC_NODE":291.0112,"ARG_OF_PERICENTER":55.1353,"MEAN_ANOMALY":304.9568,"EPHEMERIS_TYPE":0,"CLASSIFICATION_TYPE":"U","NORAD_CAT_ID":63586,"ELEMENT_SET_NO":999,"REV_AT_EPOCH":3316,"BSTAR":0.0012729,"MEAN_MOTION_DOT":0.00034955,"MEAN_MOTION_DDOT":0}]
